[{"name":"KNACKSAT-2","l1":"1 67683U 98067XZ  26183.27043350  .00047788  00000+0  55339-3 0  9995","l2":"2 67683  51.6255 218.5343 0008371 281.3126  78.6927 15.61304103 22630","cat":"science"},{"name":"SIRION PATHFINDER-2","l1":"1 43759U 18099B   26183.44289806  .00005009  00000+0  27406-3 0  9991","l2":"2 43759  97.4240 232.1382 0007319 240.1372 119.9133 15.14680073414939","cat":"other"},{"name":"CORVUS BC4","l1":"1 43767U 18099K   26182.08100218  .00005142  00000+0  29796-3 0  9990","l2":"2 43767  97.4054 224.6547 0006930 321.1885  38.8848 15.12603535414508","cat":"other"},{"name":"M2 PATHFINDER","l1":"1 45727U 20037E   26183.47482691  .00003477  00000+0  25081-3 0  9997","l2":"2 45727  97.8146  14.8778 0012859 100.9984 259.2689 15.04746846327797","cat":"other"},{"name":"NETSAT-4","l1":"1 46504U 20068U   26183.61299830  .00017984  00000+0  39116-3 0  9994","l2":"2 46504  97.8600 193.0981 0003447 250.0471 110.0405 15.44380953318150","cat":"other"},{"name":"NETSAT-3","l1":"1 46505U 20068V   26183.76068933  .00020196  00000+0  45631-3 0  9997","l2":"2 46505  97.8650 191.4550 0002892 277.6321  82.4597 15.43224400318081","cat":"other"},{"name":"NETSAT-1","l1":"1 46506U 20068W   26183.26102793  .00013631  00000+0  40391-3 0  9990","l2":"2 46506  97.8745 185.0671 0003139 337.8079  22.3027 15.34987582317610","cat":"other"},{"name":"NETSAT-2","l1":"1 46507U 20068X   26183.50164693  .00024138  00000+0  48478-3 0  9993","l2":"2 46507  97.8610 192.9295 0001408 305.0329  55.0787 15.46666067318109","cat":"other"},{"name":"GREENCUBE (IO-117)","l1":"1 53109U 22080E   26181.72466670 -.00000003  00000+0  00000+0 0  9998","l2":"2 53109  70.1437 293.5372 0008958 286.6703  73.2973  6.42583253 92937","cat":"other"},{"name":"SITRO-AIS 5 (KATYS)","l1":"1 57176U 23091L   26183.77020238  .00012915  00000+0  44869-3 0  9991","l2":"2 57176  97.5050 247.8206 0011934  54.5453 305.6899 15.29818039166725","cat":"communications"},{"name":"SITRO-AIS 6 (CHIRKIN)","l1":"1 57192U 23091AC  26183.71981360  .00010925  00000+0  42368-3 0  9996","l2":"2 57192  97.5058 246.8059 0012391  58.0511 302.1930 15.26233454166657","cat":"communications"},{"name":"SITRO-AIS 8 (ANOKHIN)","l1":"1 57193U 23091AD  26183.75968561  .00015102  00000+0  48157-3 0  9993","l2":"2 57193  97.5047 249.4627 0010788  50.6810 309.5386 15.32563667166839","cat":"communications"},{"name":"SITRO-AIS 7 (FARTUSHNIY)","l1":"1 57194U 23091AE  26183.72616912  .00010930  00000+0  42792-3 0  9994","l2":"2 57194  97.5053 246.6290 0012309  59.0210 301.2236 15.25914675166643","cat":"communications"},{"name":"SITRO-AIS 10 (BURDAEV)","l1":"1 57199U 23091AK  26183.72495748  .00021565  00000+0  55578-3 0  9993","l2":"2 57199  97.5074 254.6438 0006074  30.4312 329.7284 15.39203696167156","cat":"communications"},{"name":"SITRO-AIS 9 (SHCHUKIN)","l1":"1 57201U 23091AM  26183.75637203  .00021157  00000+0  55430-3 0  9998","l2":"2 57201  97.5070 254.3937 0006340  30.3218 329.8392 15.38700977167140","cat":"communications"},{"name":"SITRO-AIS 12 (SMIRENNIY)","l1":"1 57204U 23091AQ  26183.74403002  .00022151  00000+0  57467-3 0  9995","l2":"2 57204  97.5084 254.8580 0005824  24.3807 335.7712 15.38995781167163","cat":"communications"},{"name":"SITRO-AIS 11 (SHEFFER)","l1":"1 57208U 23091AU  26183.75310647  .00022296  00000+0  57032-3 0  9990","l2":"2 57208  97.5083 255.1236 0005759  24.3606 335.7911 15.39428791167188","cat":"communications"},{"name":"SITRO-AIS 25","l1":"1 59066U 24039R   26183.78562462  .00003703  00000+0  29040-3 0  9994","l2":"2 59066  95.3900 245.8116 0142273 273.5027  84.9936 14.93588780127053","cat":"communications"},{"name":"SITRO-AIS 26","l1":"1 59067U 24039S   26183.78913545  .00003560  00000+0  28069-3 0  9998","l2":"2 59067  95.3899 245.7085 0142598 274.1028  84.3911 14.93382652127049","cat":"communications"},{"name":"SITRO-AIS 27","l1":"1 59068U 24039T   26183.75499110  .00002579  00000+0  20230-3 0  9994","l2":"2 59068  95.3901 245.9644 0141772 272.7838  85.7169 14.93802994127061","cat":"communications"},{"name":"SITRO-AIS 28","l1":"1 59071U 24039U   26183.79907425  .00003348  00000+0  26167-3 0  9995","l2":"2 59071  95.3904 246.0426 0141527 272.4658  86.0371 14.93839319127074","cat":"communications"},{"name":"GRBBETA","l1":"1 60237U 24128C   26183.68340293  .00004303  00000+0  29759-3 0  9994","l2":"2 60237  61.9887 161.8933 0038648 137.9860 222.4208 15.06735008108603","cat":"other"},{"name":"OOV-CUBE (TUBSAT-30)","l1":"1 60240U 24128F   26183.69186645  .00002197  00000+0  17578-3 0  9993","l2":"2 60240  61.9926 171.5059 0042719 137.2336 223.2093 15.02831807108446","cat":"other"},{"name":"ROBUSTA-3A (MEDITERRAN*)","l1":"1 60243U 24128J   26183.41414843  .00007696  00000+0  45227-3 0  9991","l2":"2 60243  61.9853 154.3896 0039659 131.0687 229.3846 15.11831241108722","cat":"science"},{"name":"LASARSAT","l1":"1 62391U 24247Q   26183.66931882  .00032981  00000+0  63607-3 0  9990","l2":"2 62391  44.9722 175.1548 0006585  71.8885 288.2722 15.47293079 85712","cat":"other"},{"name":"CROCUBE","l1":"1 62394U 24247T   26183.26077660  .00043599  00000+0  78103-3 0  9998","l2":"2 62394  44.9691 174.5342 0006479  75.1846 284.9762 15.49290769 85689","cat":"other"},{"name":"FORESAIL-1 PRIME","l1":"1 66778U 25276DS  26183.67718546  .00005924  00000+0  28756-3 0  9990","l2":"2 66778  97.4196 256.6654 0003672  71.4319 288.7315 15.18841293 32752","cat":"other"}]